{
  "type": "FeatureCollection",
  "features": [
    {
      "type": "Feature",
      "properties": {
        "norad_id": 39773,
        "name": "EUTELSAT 3B",
        "group": "eutelsat",
        "lat": -0.07737590782612917,
        "lon": -131.80144343170875,
        "alt_km": 35766.04278824057,
        "timestamp": "2025-12-09T09:46:47.318551+00:00",
        "meta_object_name": "EUTELSAT 3B",
        "meta_object_id": "2014-030A",
        "meta_epoch": "2025-12-08T22:10:44.711904",
        "meta_mean_motion": 1.0027126,
        "meta_eccentricity": 0.00047749,
        "meta_inclination": 0.0633,
        "meta_ra_of_asc_node": 340.6749,
        "meta_arg_of_pericenter": 247.5106,
        "meta_mean_anomaly": 185.5304,
        "meta_ephemeris_type": 0,
        "meta_classification_type": "U",
        "meta_norad_cat_id": 39773,
        "meta_element_set_no": 999,
        "meta_rev_at_epoch": 4215,
        "meta_bstar": 0,
        "meta_mean_motion_dot": 2.2e-07,
        "meta_mean_motion_ddot": 0,
        "tle_line1": "1 39773U 14030A   25342.92412861  .00000022  00000+0  00000+0 0  9998",
        "tle_line2": "2 39773   0.0633 340.6749 0004774 247.5106 185.5304  1.00271260 42150"
      },
      "geometry": {
        "type": "Point",
        "coordinates": [
          -131.80144343170875,
          -0.07737590782612917
        ]
      }
    },
    {
      "type": "Feature",
      "properties": {
        "norad_id": 40425,
        "name": "EUTELSAT 115 WEST B",
        "group": "eutelsat",
        "lat": -0.008175534273649535,
        "lon": 110.19500746119635,
        "alt_km": 35786.01724981763,
        "timestamp": "2025-12-09T09:46:47.318567+00:00",
        "meta_object_name": "EUTELSAT 115 WEST B",
        "meta_object_id": "2015-010B",
        "meta_epoch": "2025-12-09T01:01:30.855072",
        "meta_mean_motion": 1.00268138,
        "meta_eccentricity": 2.78e-05,
        "meta_inclination": 0.0085,
        "meta_ra_of_asc_node": 146.6018,
        "meta_arg_of_pericenter": 300.0024,
        "meta_mean_anomaly": 251.9196,
        "meta_ephemeris_type": 0,
        "meta_classification_type": "U",
        "meta_norad_cat_id": 40425,
        "meta_element_set_no": 999,
        "meta_rev_at_epoch": 3948,
        "meta_bstar": 0,
        "meta_mean_motion_dot": -2.2e-07,
        "meta_mean_motion_ddot": 0,
        "tle_line1": "1 40425U 15010B   25343.04271823 -.00000022  00000+0  00000+0 0  9999",
        "tle_line2": "2 40425   0.0085 146.6018 0000278 300.0024 251.9196  1.00268138 39488"
      },
      "geometry": {
        "type": "Point",
        "coordinates": [
          110.19500746119635,
          -0.008175534273649535
        ]
      }
    },
    {
      "type": "Feature",
      "properties": {
        "norad_id": 40875,
        "name": "EUTELSAT 8 WEST B",
        "group": "eutelsat",
        "lat": -0.05535791518536716,
        "lon": -142.92505117489495,
        "alt_km": 35773.15041416282,
        "timestamp": "2025-12-09T09:46:47.318579+00:00",
        "meta_object_name": "EUTELSAT 8 WEST B",
        "meta_object_id": "2015-039B",
        "meta_epoch": "2025-12-08T22:07:37.509888",
        "meta_mean_motion": 1.00271462,
        "meta_eccentricity": 0.00041506,
        "meta_inclination": 0.0645,
        "meta_ra_of_asc_node": 359.6326,
        "meta_arg_of_pericenter": 259.6148,
        "meta_mean_anomaly": 142.5943,
        "meta_ephemeris_type": 0,
        "meta_classification_type": "U",
        "meta_norad_cat_id": 40875,
        "meta_element_set_no": 999,
        "meta_rev_at_epoch": 3774,
        "meta_bstar": 0,
        "meta_mean_motion_dot": -6.3e-07,
        "meta_mean_motion_ddot": 0,
        "tle_line1": "1 40875U 15039B   25342.92196192 -.00000063  00000+0  00000+0 0  9995",
        "tle_line2": "2 40875   0.0645 359.6326 0004150 259.6148 142.5943  1.00271462 37742"
      },
      "geometry": {
        "type": "Point",
        "coordinates": [
          -142.92505117489495,
          -0.05535791518536716
        ]
      }
    },
    {
      "type": "Feature",
      "properties": {
        "norad_id": 41310,
        "name": "EUTELSAT 9B",
        "group": "eutelsat",
        "lat": -0.017242147218860825,
        "lon": -125.92434668454143,
        "alt_km": 35768.15308232135,
        "timestamp": "2025-12-09T09:46:47.318591+00:00",
        "meta_object_name": "EUTELSAT 9B",
        "meta_object_id": "2016-005A",
        "meta_epoch": "2025-12-08T21:44:38.781888",
        "meta_mean_motion": 1.00271973,
        "meta_eccentricity": 0.00048973,
        "meta_inclination": 0.0356,
        "meta_ra_of_asc_node": 52.0517,
        "meta_arg_of_pericenter": 212.7263,
        "meta_mean_anomaly": 148.2994,
        "meta_ephemeris_type": 0,
        "meta_classification_type": "U",
        "meta_norad_cat_id": 41310,
        "meta_element_set_no": 999,
        "meta_rev_at_epoch": 3620,
        "meta_bstar": 0,
        "meta_mean_motion_dot": 6.4e-07,
        "meta_mean_motion_ddot": 0,
        "tle_line1": "1 41310U 16005A   25342.90600442  .00000064  00000+0  00000+0 0  9990",
        "tle_line2": "2 41310   0.0356  52.0517 0004897 212.7263 148.2994  1.00271973 36204"
      },
      "geometry": {
        "type": "Point",
        "coordinates": [
          -125.92434668454143,
          -0.017242147218860825
        ]
      }
    },
    {
      "type": "Feature",
      "properties": {
        "norad_id": 41382,
        "name": "EUTELSAT 65 WEST A",
        "group": "eutelsat",
        "lat": 0.0225535441748844,
        "lon": 159.8550559764255,
        "alt_km": 35788.63279553925,
        "timestamp": "2025-12-09T09:46:47.318604+00:00",
        "meta_object_name": "EUTELSAT 65 WEST A",
        "meta_object_id": "2016-014A",
        "meta_epoch": "2025-12-09T03:48:38.697408",
        "meta_mean_motion": 1.00272783,
        "meta_eccentricity": 0.0002667,
        "meta_inclination": 0.0495,
        "meta_ra_of_asc_node": 4.0066,
        "meta_arg_of_pericenter": 260.2751,
        "meta_mean_anomaly": 165.8246,
        "meta_ephemeris_type": 0,
        "meta_classification_type": "U",
        "meta_norad_cat_id": 41382,
        "meta_element_set_no": 999,
        "meta_rev_at_epoch": 3563,
        "meta_bstar": 0,
        "meta_mean_motion_dot": -2.74e-06,
        "meta_mean_motion_ddot": 0,
        "tle_line1": "1 41382U 16014A   25343.15878122 -.00000274  00000+0  00000+0 0  9993",
        "tle_line2": "2 41382   0.0495   4.0066 0002667 260.2751 165.8246  1.00272783 35637"
      },
      "geometry": {
        "type": "Point",
        "coordinates": [
          159.8550559764255,
          0.0225535441748844
        ]
      }
    },
    {
      "type": "Feature",
      "properties": {
        "norad_id": 41589,
        "name": "EUTELSAT 117 WEST B",
        "group": "eutelsat",
        "lat": -0.00862393404766546,
        "lon": 108.0997665928166,
        "alt_km": 35784.68495211025,
        "timestamp": "2025-12-09T09:46:47.318616+00:00",
        "meta_object_name": "EUTELSAT 117 WEST B",
        "meta_object_id": "2016-038B",
        "meta_epoch": "2025-12-09T01:01:58.310400",
        "meta_mean_motion": 1.00271867,
        "meta_eccentricity": 3.72e-05,
        "meta_inclination": 0.0079,
        "meta_ra_of_asc_node": 144.6605,
        "meta_arg_of_pericenter": 293.2905,
        "meta_mean_anomaly": 258.5865,
        "meta_ephemeris_type": 0,
        "meta_classification_type": "U",
        "meta_norad_cat_id": 41589,
        "meta_element_set_no": 999,
        "meta_rev_at_epoch": 3475,
        "meta_bstar": 0,
        "meta_mean_motion_dot": -1e-07,
        "meta_mean_motion_ddot": 0,
        "tle_line1": "1 41589U 16038B   25343.04303600 -.00000010  00000+0  00000+0 0  9998",
        "tle_line2": "2 41589   0.0079 144.6605 0000372 293.2905 258.5865  1.00271867 34753"
      },
      "geometry": {
        "type": "Point",
        "coordinates": [
          108.0997665928166,
          -0.00862393404766546
        ]
      }
    },
    {
      "type": "Feature",
      "properties": {
        "norad_id": 42741,
        "name": "EUTELSAT 172B",
        "group": "eutelsat",
        "lat": 0.003181861418562527,
        "lon": 37.10047783514982,
        "alt_km": 35787.0307955823,
        "timestamp": "2025-12-09T09:46:47.318628+00:00",
        "meta_object_name": "EUTELSAT 172B",
        "meta_object_id": "2017-029B",
        "meta_epoch": "2025-12-09T02:24:13.275360",
        "meta_mean_motion": 1.00270381,
        "meta_eccentricity": 1.54e-05,
        "meta_inclination": 0.0113,
        "meta_ra_of_asc_node": 92.4681,
        "meta_arg_of_pericenter": 154.1334,
        "meta_mean_anomaly": 39.5583,
        "meta_ephemeris_type": 0,
        "meta_classification_type": "U",
        "meta_norad_cat_id": 42741,
        "meta_element_set_no": 999,
        "meta_rev_at_epoch": 3182,
        "meta_bstar": 0,
        "meta_mean_motion_dot": -4e-08,
        "meta_mean_motion_ddot": 0,
        "tle_line1": "1 42741U 17029B   25343.10015365 -.00000004  00000+0  00000+0 0  9998",
        "tle_line2": "2 42741   0.0113  92.4681 0000154 154.1334  39.5583  1.00270381 31825"
      },
      "geometry": {
        "type": "Point",
        "coordinates": [
          37.10047783514982,
          0.003181861418562527
        ]
      }
    }
  ]
}